{
"type": "FeatureCollection",
"name": "cb_2020_us_zcta520_500k_centroid",
"crs": { "type": "name", "properties": { "name": "urn:ogc:def:crs:EPSG::4269" } },
"features": [
{ "type": "Feature", "properties": { "ZCTA5CE20": "07702" }, "geometry": { "type": "Point", "coordinates": [ -74.060022099287949, 40.324893511760173 ] } },
{ "type": "Feature", "properties": { "ZCTA5CE20": "07720" }, "geometry": { "type": "Point", "coordinates": [ -74.012764831384857, 40.201756639487002 ] } },
{ "type": "Feature", "properties": { "ZCTA5CE20": "07717" }, "geometry": { "type": "Point", "coordinates": [ -74.016601295824998, 40.191312722848288 ] } },
{ "type": "Feature", "properties": { "ZCTA5CE20": "07737" }, "geometry": { "type": "Point", "coordinates": [ -74.064441955463479, 40.409463854710388 ] } },
{ "type": "Feature", "properties": { "ZCTA5CE20": "07738" }, "geometry": { "type": "Point", "coordinates": [ -74.128439452831174, 40.339237447367744 ] } },
{ "type": "Feature", "properties": { "ZCTA5CE20": "07756" }, "geometry": { "type": "Point", "coordinates": [ -74.008322998931945, 40.211837784058929 ] } },
{ "type": "Feature", "properties": { "ZCTA5CE20": "07704" }, "geometry": { "type": "Point", "coordinates": [ -74.039256219689619, 40.361757441095889 ] } },
{ "type": "Feature", "properties": { "ZCTA5CE20": "08857" }, "geometry": { "type": "Point", "coordinates": [ -74.330597990758747, 40.391874966178548 ] } },
{ "type": "Feature", "properties": { "ZCTA5CE20": "07719" }, "geometry": { "type": "Point", "coordinates": [ -74.072698184644736, 40.168639035673877 ] } },
{ "type": "Feature", "properties": { "ZCTA5CE20": "07728" }, "geometry": { "type": "Point", "coordinates": [ -74.284452765442083, 40.225222886007757 ] } },
{ "type": "Feature", "properties": { "ZCTA5CE20": "07727" }, "geometry": { "type": "Point", "coordinates": [ -74.158614817481734, 40.203517651436549 ] } },
{ "type": "Feature", "properties": { "ZCTA5CE20": "07735" }, "geometry": { "type": "Point", "coordinates": [ -74.202622031208293, 40.440951569042113 ] } },
{ "type": "Feature", "properties": { "ZCTA5CE20": "07703" }, "geometry": { "type": "Point", "coordinates": [ -74.046055220014466, 40.314062261305672 ] } },
{ "type": "Feature", "properties": { "ZCTA5CE20": "07750" }, "geometry": { "type": "Point", "coordinates": [ -73.986473932991714, 40.336401709022226 ] } },
{ "type": "Feature", "properties": { "ZCTA5CE20": "07724" }, "geometry": { "type": "Point", "coordinates": [ -74.075180235823524, 40.298006279911725 ] } },
{ "type": "Feature", "properties": { "ZCTA5CE20": "07732" }, "geometry": { "type": "Point", "coordinates": [ -73.992048548320099, 40.430739187866777 ] } },
{ "type": "Feature", "properties": { "ZCTA5CE20": "07711" }, "geometry": { "type": "Point", "coordinates": [ -74.007600045328616, 40.237903972088397 ] } },
{ "type": "Feature", "properties": { "ZCTA5CE20": "08879" }, "geometry": { "type": "Point", "coordinates": [ -74.276965133884886, 40.465301329328497 ] } },
{ "type": "Feature", "properties": { "ZCTA5CE20": "07760" }, "geometry": { "type": "Point", "coordinates": [ -74.005508075943013, 40.370448853458335 ] } },
{ "type": "Feature", "properties": { "ZCTA5CE20": "07746" }, "geometry": { "type": "Point", "coordinates": [ -74.250289263864275, 40.316772561312092 ] } },
{ "type": "Feature", "properties": { "ZCTA5CE20": "07753" }, "geometry": { "type": "Point", "coordinates": [ -74.07421127865527, 40.211836668617082 ] } },
{ "type": "Feature", "properties": { "ZCTA5CE20": "08720" }, "geometry": { "type": "Point", "coordinates": [ -74.114319775917835, 40.140719220617903 ] } },
{ "type": "Feature", "properties": { "ZCTA5CE20": "07730" }, "geometry": { "type": "Point", "coordinates": [ -74.174355634954566, 40.425971461447553 ] } },
{ "type": "Feature", "properties": { "ZCTA5CE20": "07764" }, "geometry": { "type": "Point", "coordinates": [ -74.018530760190089, 40.288320086279327 ] } },
{ "type": "Feature", "properties": { "ZCTA5CE20": "07721" }, "geometry": { "type": "Point", "coordinates": [ -74.235554646631442, 40.435556100685233 ] } },
{ "type": "Feature", "properties": { "ZCTA5CE20": "07757" }, "geometry": { "type": "Point", "coordinates": [ -74.018552718447722, 40.315828200901613 ] } },
{ "type": "Feature", "properties": { "ZCTA5CE20": "07758" }, "geometry": { "type": "Point", "coordinates": [ -74.103259634287866, 40.430782646287149 ] } },
{ "type": "Feature", "properties": { "ZCTA5CE20": "07747" }, "geometry": { "type": "Point", "coordinates": [ -74.252114193154753, 40.413123635483949 ] } },
{ "type": "Feature", "properties": { "ZCTA5CE20": "07718" }, "geometry": { "type": "Point", "coordinates": [ -74.085176548636852, 40.42016788954858 ] } },
{ "type": "Feature", "properties": { "ZCTA5CE20": "07739" }, "geometry": { "type": "Point", "coordinates": [ -74.034520425200128, 40.335685942826487 ] } },
{ "type": "Feature", "properties": { "ZCTA5CE20": "07755" }, "geometry": { "type": "Point", "coordinates": [ -74.023442757025165, 40.263505390138477 ] } },
{ "type": "Feature", "properties": { "ZCTA5CE20": "07701" }, "geometry": { "type": "Point", "coordinates": [ -74.0786556152662, 40.360458048158812 ] } },
{ "type": "Feature", "properties": { "ZCTA5CE20": "07762" }, "geometry": { "type": "Point", "coordinates": [ -74.035898576248499, 40.152929966370181 ] } },
{ "type": "Feature", "properties": { "ZCTA5CE20": "07731" }, "geometry": { "type": "Point", "coordinates": [ -74.203140462328577, 40.150135648959314 ] } },
{ "type": "Feature", "properties": { "ZCTA5CE20": "08859" }, "geometry": { "type": "Point", "coordinates": [ -74.304020563536994, 40.458967428431485 ] } },
{ "type": "Feature", "properties": { "ZCTA5CE20": "07726" }, "geometry": { "type": "Point", "coordinates": [ -74.342323333432034, 40.283178348374861 ] } },
{ "type": "Feature", "properties": { "ZCTA5CE20": "08872" }, "geometry": { "type": "Point", "coordinates": [ -74.340024195259758, 40.464813663768567 ] } },
{ "type": "Feature", "properties": { "ZCTA5CE20": "07712" }, "geometry": { "type": "Point", "coordinates": [ -74.055301807770704, 40.248038926618356 ] } },
{ "type": "Feature", "properties": { "ZCTA5CE20": "07734" }, "geometry": { "type": "Point", "coordinates": [ -74.134820056870979, 40.442570937535145 ] } },
{ "type": "Feature", "properties": { "ZCTA5CE20": "07723" }, "geometry": { "type": "Point", "coordinates": [ -74.000813077792799, 40.250155095409824 ] } },
{ "type": "Feature", "properties": { "ZCTA5CE20": "08750" }, "geometry": { "type": "Point", "coordinates": [ -74.044404557133447, 40.1338868044432 ] } },
{ "type": "Feature", "properties": { "ZCTA5CE20": "07751" }, "geometry": { "type": "Point", "coordinates": [ -74.258230999345741, 40.361917842773373 ] } },
{ "type": "Feature", "properties": { "ZCTA5CE20": "07722" }, "geometry": { "type": "Point", "coordinates": [ -74.167433324417743, 40.28767564013252 ] } },
{ "type": "Feature", "properties": { "ZCTA5CE20": "07740" }, "geometry": { "type": "Point", "coordinates": [ -73.991917160888889, 40.295789345692981 ] } },
{ "type": "Feature", "properties": { "ZCTA5CE20": "07733" }, "geometry": { "type": "Point", "coordinates": [ -74.172593455747247, 40.376830816782643 ] } },
{ "type": "Feature", "properties": { "ZCTA5CE20": "08527" }, "geometry": { "type": "Point", "coordinates": [ -74.350342654699361, 40.104779778012976 ] } },
{ "type": "Feature", "properties": { "ZCTA5CE20": "07716" }, "geometry": { "type": "Point", "coordinates": [ -74.035333002134053, 40.402374053008714 ] } },
{ "type": "Feature", "properties": { "ZCTA5CE20": "07748" }, "geometry": { "type": "Point", "coordinates": [ -74.115740397001915, 40.395091710894569 ] } }
]
}
