{
    "type": "FeatureCollection",
    "generator": "overpass-turbo",
    "copyright": "The data included in this document is from www.openstreetmap.org. The data is made available under ODbL.",
    "timestamp": "2025-09-30T13:18:30Z",
    "features": [
        {
            "type": "Feature",
            "properties": {
                "@id": "node/495573934",
                "addr:city": "Highlands",
                "addr:housenumber": "1",
                "addr:postcode": "07732",
                "addr:state": "NJ",
                "addr:street": "NJ-36",
                "amenity": "restaurant",
                "cuisine": "seafood;american",
                "name": "Off the Hook",
                "phone": "1-732-872-2006",
                "website": "https://offthehookhighlands.com/"
            },
            "geometry": {
                "type": "Point",
                "coordinates": [
                    -73.9829008,
                    40.3968598
                ]
            },
            "id": "node/495573934"
        },
        {
            "type": "Feature",
            "properties": {
                "@id": "node/569128107",
                "amenity": "restaurant",
                "name": "The Brothers"
            },
            "geometry": {
                "type": "Point",
                "coordinates": [
                    -74.0737997,
                    40.3509961
                ]
            },
            "id": "node/569128107"
        },
        {
            "type": "Feature",
            "properties": {
                "@id": "node/569140549",
                "addr:city": "Red Bank",
                "addr:housenumber": "64",
                "addr:postcode": "07701",
                "addr:state": "NJ",
                "addr:street": "Monmouth Street",
                "amenity": "restaurant",
                "check_date": "2025-03-11",
                "contact:facebook": "https://www.facebook.com/teakredbank/",
                "cuisine": "asian",
                "name": "Teak",
                "opening_hours": "Mo-Fr 12:00-22:00; Sa 17:00-22:00; Su 16:00-21:00",
                "phone": "+1 732-747-5775",
                "reservation": "yes",
                "takeaway": "yes",
                "website": "https://www.teakrestaurant.com/"
            },
            "geometry": {
                "type": "Point",
                "coordinates": [
                    -74.0682704,
                    40.3495611
                ]
            },
            "id": "node/569140549"
        },
        {
            "type": "Feature",
            "properties": {
                "@id": "node/569140563",
                "addr:city": "Red Bank",
                "addr:housenumber": "110",
                "addr:postcode": "07701",
                "addr:state": "NJ",
                "addr:street": "Monmouth Street",
                "amenity": "restaurant",
                "check_date": "2025-03-11",
                "cuisine": "mexican",
                "name": "Azteca Grill",
                "opening_hours": "Mo-We,Su 07:00-22:00; Th-Sa 08:00-20:00",
                "phone": "+1 732-530-4350",
                "takeaway": "yes",
                "website": "https://aztecagrillredbank.com/",
                "website:menu": "https://ordering.app2food.com/order3/11143/#/"
            },
            "geometry": {
                "type": "Point",
                "coordinates": [
                    -74.0706093,
                    40.3492708
                ]
            },
            "id": "node/569140563"
        },
        {
            "type": "Feature",
            "properties": {
                "@id": "node/569197662",
                "amenity": "restaurant",
                "name": "La Pastaria"
            },
            "geometry": {
                "type": "Point",
                "coordinates": [
                    -74.0638125,
                    40.3492463
                ]
            },
            "id": "node/569197662"
        },
        {
            "type": "Feature",
            "properties": {
                "@id": "node/569197688",
                "amenity": "restaurant",
                "name": "Gaetano's"
            },
            "geometry": {
                "type": "Point",
                "coordinates": [
                    -74.0645045,
                    40.3500762
                ]
            },
            "id": "node/569197688"
        },
        {
            "type": "Feature",
            "properties": {
                "@id": "node/1447443355",
                "amenity": "restaurant",
                "name": "Nauvoo Grill"
            },
            "geometry": {
                "type": "Point",
                "coordinates": [
                    -74.0347666,
                    40.3640554
                ]
            },
            "id": "node/1447443355"
        },
        {
            "type": "Feature",
            "properties": {
                "@id": "node/1455177681",
                "addr:city": "Fair Haven",
                "addr:housenumber": "583",
                "addr:postcode": "07704",
                "addr:state": "NJ",
                "addr:street": "River Road",
                "amenity": "restaurant",
                "name": "Jack's Goal Line Stand",
                "not:brand:wikidata": "Q6110826",
                "phone": "7327476522",
                "website": "https://www.jacksgoallinestand.com/locations/fair-haven/"
            },
            "geometry": {
                "type": "Point",
                "coordinates": [
                    -74.0422561,
                    40.3615881
                ]
            },
            "id": "node/1455177681"
        },
        {
            "type": "Feature",
            "properties": {
                "@id": "node/1455177708",
                "amenity": "restaurant",
                "cuisine": "italian",
                "name": "Tavolo Pronto"
            },
            "geometry": {
                "type": "Point",
                "coordinates": [
                    -74.0412637,
                    40.3615677
                ]
            },
            "id": "node/1455177708"
        },
        {
            "type": "Feature",
            "properties": {
                "@id": "node/1606336795",
                "addr:housenumber": "69",
                "addr:postcode": "07701",
                "addr:street": "Broad St.",
                "amenity": "restaurant",
                "cuisine": "italian",
                "name": "Monticello At Red Bank - Italian Restaurant",
                "website": "https://www.monticelloatredbank.com/"
            },
            "geometry": {
                "type": "Point",
                "coordinates": [
                    -74.0651729,
                    40.3498222
                ]
            },
            "id": "node/1606336795"
        },
        {
            "type": "Feature",
            "properties": {
                "@id": "node/2399784916",
                "amenity": "restaurant",
                "cuisine": "seafood",
                "name": "McLoone's Pier House"
            },
            "geometry": {
                "type": "Point",
                "coordinates": [
                    -73.9780224,
                    40.3026062
                ]
            },
            "id": "node/2399784916"
        },
        {
            "type": "Feature",
            "properties": {
                "@id": "node/2399785046",
                "amenity": "restaurant",
                "cuisine": "italian",
                "name": "Sirena Ristorante"
            },
            "geometry": {
                "type": "Point",
                "coordinates": [
                    -73.9783517,
                    40.3008871
                ]
            },
            "id": "node/2399785046"
        },
        {
            "type": "Feature",
            "properties": {
                "@id": "node/2399785103",
                "amenity": "restaurant",
                "cuisine": "international",
                "name": "Le Club Avenue"
            },
            "geometry": {
                "type": "Point",
                "coordinates": [
                    -73.9782407,
                    40.3012124
                ]
            },
            "id": "node/2399785103"
        },
        {
            "type": "Feature",
            "properties": {
                "@id": "node/2399904351",
                "amenity": "restaurant",
                "contact:facebook": "https://www.facebook.com/wildbamboonj/",
                "cuisine": "asian",
                "name": "Wild Bamboo"
            },
            "geometry": {
                "type": "Point",
                "coordinates": [
                    -73.9787682,
                    40.3025807
                ]
            },
            "id": "node/2399904351"
        },
        {
            "type": "Feature",
            "properties": {
                "@id": "node/2399904457",
                "amenity": "restaurant",
                "name": "Seaview"
            },
            "geometry": {
                "type": "Point",
                "coordinates": [
                    -73.9788272,
                    40.3043051
                ]
            },
            "id": "node/2399904457"
        },
        {
            "type": "Feature",
            "properties": {
                "@id": "node/2399904478",
                "amenity": "restaurant",
                "cuisine": "pizza",
                "name": "Manny's Pizza"
            },
            "geometry": {
                "type": "Point",
                "coordinates": [
                    -73.9789828,
                    40.3012777
                ]
            },
            "id": "node/2399904478"
        },
        {
            "type": "Feature",
            "properties": {
                "@id": "node/2399904706",
                "amenity": "restaurant",
                "cuisine": "greek",
                "name": "It's Greek to Me",
                "website": "https://www.simplygreekeats.com"
            },
            "geometry": {
                "type": "Point",
                "coordinates": [
                    -73.9793903,
                    40.3020284
                ]
            },
            "id": "node/2399904706"
        },
        {
            "type": "Feature",
            "properties": {
                "@id": "node/2399904770",
                "amenity": "restaurant",
                "cuisine": "american",
                "name": "Stewart's Root Beer"
            },
            "geometry": {
                "type": "Point",
                "coordinates": [
                    -73.9792269,
                    40.3015763
                ]
            },
            "id": "node/2399904770"
        },
        {
            "type": "Feature",
            "properties": {
                "@id": "node/2399905017",
                "amenity": "restaurant",
                "cuisine": "coffee_shop",
                "name": "The Turning Point"
            },
            "geometry": {
                "type": "Point",
                "coordinates": [
                    -73.9790471,
                    40.3007519
                ]
            },
            "id": "node/2399905017"
        },
        {
            "type": "Feature",
            "properties": {
                "@id": "node/2574953216",
                "amenity": "restaurant",
                "cuisine": "seafood",
                "name": "Bahrs Landing Seafood Restaurant & Marina",
                "toilets": "yes"
            },
            "geometry": {
                "type": "Point",
                "coordinates": [
                    -73.981359,
                    40.3973836
                ]
            },
            "id": "node/2574953216"
        },
        {
            "type": "Feature",
            "properties": {
                "@id": "node/3103748606",
                "amenity": "restaurant",
                "name": "On the Deck"
            },
            "geometry": {
                "type": "Point",
                "coordinates": [
                    -74.0359525,
                    40.4175109
                ]
            },
            "id": "node/3103748606"
        },
        {
            "type": "Feature",
            "properties": {
                "@id": "node/3124449044",
                "addr:city": "Keyport",
                "addr:housenumber": "42",
                "addr:postcode": "07735",
                "addr:street": "West Front Street",
                "amenity": "restaurant",
                "cuisine": "italian",
                "name": "Keyport Pizza",
                "phone": "(732) 264-2667"
            },
            "geometry": {
                "type": "Point",
                "coordinates": [
                    -74.2034447,
                    40.4369616
                ]
            },
            "id": "node/3124449044"
        },
        {
            "type": "Feature",
            "properties": {
                "@id": "node/3124449045",
                "addr:city": "Keyport",
                "addr:housenumber": "46",
                "addr:postcode": "07735",
                "addr:street": "West Front Street",
                "amenity": "restaurant",
                "cuisine": "ice_cream",
                "name": "Uncle Louie G - Italian Ice & Ice Cream",
                "phone": "(732) 497-0430",
                "website": "https://www.facebook.com/pages/Uncle-Louie-G-Keyport/178700198926231"
            },
            "geometry": {
                "type": "Point",
                "coordinates": [
                    -74.2035042,
                    40.4369449
                ]
            },
            "id": "node/3124449045"
        },
        {
            "type": "Feature",
            "properties": {
                "@id": "node/3124449104",
                "addr:city": "Keyport",
                "addr:housenumber": "41",
                "addr:postcode": "07735",
                "addr:street": "NJ Route 36",
                "amenity": "restaurant",
                "name": "Yellow Rose Diner",
                "phone": "(732) 739-2828",
                "website": "https://www.yellowrosediner.com/"
            },
            "geometry": {
                "type": "Point",
                "coordinates": [
                    -74.1945892,
                    40.4278838
                ]
            },
            "id": "node/3124449104"
        },
        {
            "type": "Feature",
            "properties": {
                "@id": "node/3124765376",
                "amenity": "restaurant",
                "name": "Wonder Bagel"
            },
            "geometry": {
                "type": "Point",
                "coordinates": [
                    -74.199998,
                    40.4326957
                ]
            },
            "id": "node/3124765376"
        },
        {
            "type": "Feature",
            "properties": {
                "@id": "node/3132331322",
                "addr:city": "Keyport",
                "addr:housenumber": "34",
                "addr:postcode": "07735",
                "addr:street": "East Front Street",
                "amenity": "restaurant",
                "cuisine": "mexican",
                "name": "Garibaldi Mexican Restaurant",
                "phone": "(732) 335-8338"
            },
            "geometry": {
                "type": "Point",
                "coordinates": [
                    -74.2007031,
                    40.4377898
                ]
            },
            "id": "node/3132331322"
        },
        {
            "type": "Feature",
            "properties": {
                "@id": "node/3667986510",
                "amenity": "restaurant",
                "brand": "Chili's",
                "brand:wikidata": "Q1072948",
                "cuisine": "tex-mex",
                "name": "Chili's",
                "official_name": "Chili's Grill & Bar"
            },
            "geometry": {
                "type": "Point",
                "coordinates": [
                    -74.1433109,
                    40.4132044
                ]
            },
            "id": "node/3667986510"
        },
        {
            "type": "Feature",
            "properties": {
                "@id": "node/3669528387",
                "amenity": "restaurant",
                "name": "Patricia's of Holmdel"
            },
            "geometry": {
                "type": "Point",
                "coordinates": [
                    -74.1473559,
                    40.4113149
                ]
            },
            "id": "node/3669528387"
        },
        {
            "type": "Feature",
            "properties": {
                "@id": "node/3669528389",
                "amenity": "restaurant",
                "cuisine": "breakfast;lunch;brunch",
                "name": "Turning Point"
            },
            "geometry": {
                "type": "Point",
                "coordinates": [
                    -74.1472933,
                    40.4115612
                ]
            },
            "id": "node/3669528389"
        },
        {
            "type": "Feature",
            "properties": {
                "@id": "node/3669528391",
                "amenity": "restaurant",
                "branch": "Holmdel",
                "brand": "Houlihan's",
                "brand:wikidata": "Q5913100",
                "name": "Houlihan's",
                "phone": "+1 732-671-6633",
                "website": "https://www.houlihans.com/location/holmdel-houlihans/"
            },
            "geometry": {
                "type": "Point",
                "coordinates": [
                    -74.1459622,
                    40.4123294
                ]
            },
            "id": "node/3669528391"
        },
        {
            "type": "Feature",
            "properties": {
                "@id": "node/3669528412",
                "amenity": "restaurant",
                "cuisine": "greek",
                "name": "Simply Greek Cuisine",
                "wheelchair": "yes"
            },
            "geometry": {
                "type": "Point",
                "coordinates": [
                    -74.143183,
                    40.4116884
                ]
            },
            "id": "node/3669528412"
        },
        {
            "type": "Feature",
            "properties": {
                "@id": "node/3681530910",
                "amenity": "restaurant",
                "cuisine": "italian",
                "name": "Palumbo Ristorante"
            },
            "geometry": {
                "type": "Point",
                "coordinates": [
                    -74.1421234,
                    40.4144098
                ]
            },
            "id": "node/3681530910"
        },
        {
            "type": "Feature",
            "properties": {
                "@id": "node/3783384203",
                "addr:city": "Keyport",
                "addr:housenumber": "204",
                "addr:postcode": "07735",
                "addr:state": "NJ",
                "addr:street": "Broad Street",
                "amenity": "restaurant",
                "contact:facebook": "Los-Corrales-2088886864692472",
                "cuisine": "mexican",
                "name": "Los Corrales",
                "opening_hours": "Su-Th 10:00-22:00; Fr-Sa 10:00-23:00; PH off",
                "phone": "+1-732-217-1775",
                "website": "https://los-corrales-nj.hub.biz/"
            },
            "geometry": {
                "type": "Point",
                "coordinates": [
                    -74.2000175,
                    40.4332572
                ]
            },
            "id": "node/3783384203"
        },
        {
            "type": "Feature",
            "properties": {
                "@id": "node/3783405270",
                "addr:city": "Keyport",
                "addr:housenumber": "83",
                "addr:postcode": "07735",
                "addr:state": "NJ",
                "addr:street": "Broad Street",
                "amenity": "restaurant",
                "cuisine": "american",
                "name": "Broad Street Diner"
            },
            "geometry": {
                "type": "Point",
                "coordinates": [
                    -74.2013779,
                    40.4366052
                ]
            },
            "id": "node/3783405270"
        },
        {
            "type": "Feature",
            "properties": {
                "@id": "node/3783488283",
                "amenity": "restaurant",
                "name": "Park East"
            },
            "geometry": {
                "type": "Point",
                "coordinates": [
                    -74.192517,
                    40.4226189
                ]
            },
            "id": "node/3783488283"
        },
        {
            "type": "Feature",
            "properties": {
                "@id": "node/3783510549",
                "amenity": "restaurant",
                "name": "Yesterday's"
            },
            "geometry": {
                "type": "Point",
                "coordinates": [
                    -74.1841616,
                    40.4210937
                ]
            },
            "id": "node/3783510549"
        },
        {
            "type": "Feature",
            "properties": {
                "@id": "node/3783534957",
                "amenity": "restaurant",
                "name": "The Grammercy at Lakeside Manor"
            },
            "geometry": {
                "type": "Point",
                "coordinates": [
                    -74.154888,
                    40.4380386
                ]
            },
            "id": "node/3783534957"
        },
        {
            "type": "Feature",
            "properties": {
                "@id": "node/3783592247",
                "amenity": "restaurant",
                "name": "Kings Arms II"
            },
            "geometry": {
                "type": "Point",
                "coordinates": [
                    -74.0900089,
                    40.4202917
                ]
            },
            "id": "node/3783592247"
        },
        {
            "type": "Feature",
            "properties": {
                "@id": "node/3784719963",
                "amenity": "restaurant",
                "name": "Tapeo"
            },
            "geometry": {
                "type": "Point",
                "coordinates": [
                    -74.1720431,
                    40.4167649
                ]
            },
            "id": "node/3784719963"
        },
        {
            "type": "Feature",
            "properties": {
                "@id": "node/3784724331",
                "amenity": "restaurant",
                "name": "Koi Sushi & Hibachi"
            },
            "geometry": {
                "type": "Point",
                "coordinates": [
                    -74.1688232,
                    40.4165668
                ]
            },
            "id": "node/3784724331"
        },
        {
            "type": "Feature",
            "properties": {
                "@id": "node/3784804369",
                "amenity": "restaurant",
                "atm": "yes",
                "cuisine": "breakfast",
                "drive_through": "no",
                "name": "Over Easy Kitchen"
            },
            "geometry": {
                "type": "Point",
                "coordinates": [
                    -74.1481,
                    40.4138998
                ]
            },
            "id": "node/3784804369"
        },
        {
            "type": "Feature",
            "properties": {
                "@id": "node/3784837872",
                "amenity": "restaurant",
                "name": "New Monmouth Diner"
            },
            "geometry": {
                "type": "Point",
                "coordinates": [
                    -74.132342,
                    40.4101266
                ]
            },
            "id": "node/3784837872"
        },
        {
            "type": "Feature",
            "properties": {
                "@id": "node/3784837877",
                "amenity": "restaurant",
                "cuisine": "chinese",
                "name": "Hunan Wok"
            },
            "geometry": {
                "type": "Point",
                "coordinates": [
                    -74.1337446,
                    40.4114824
                ]
            },
            "id": "node/3784837877"
        },
        {
            "type": "Feature",
            "properties": {
                "@id": "node/3784837878",
                "amenity": "restaurant",
                "cuisine": "pizza",
                "name": "Pasquale's Pizza"
            },
            "geometry": {
                "type": "Point",
                "coordinates": [
                    -74.1336389,
                    40.4114886
                ]
            },
            "id": "node/3784837878"
        },
        {
            "type": "Feature",
            "properties": {
                "@id": "node/3784837887",
                "amenity": "restaurant",
                "cuisine": "chinese",
                "name": "China Palace"
            },
            "geometry": {
                "type": "Point",
                "coordinates": [
                    -74.1305816,
                    40.4087893
                ]
            },
            "id": "node/3784837887"
        },
        {
            "type": "Feature",
            "properties": {
                "@id": "node/3784857242",
                "amenity": "restaurant",
                "brand": "Chuck E. Cheese",
                "brand:wikidata": "Q2438391",
                "cuisine": "pizza",
                "leisure": "amusement_arcade",
                "name": "Chuck E. Cheese",
                "website": "https://locations.chuckecheese.com/us/nj/middletown/1107-route-35"
            },
            "geometry": {
                "type": "Point",
                "coordinates": [
                    -74.1086692,
                    40.3980999
                ]
            },
            "id": "node/3784857242"
        },
        {
            "type": "Feature",
            "properties": {
                "@id": "node/3784857243",
                "addr:state": "NJ",
                "amenity": "restaurant",
                "brand": "Applebee's Neighborhood Grill & Bar",
                "brand:wikidata": "Q621532",
                "cuisine": "american",
                "name": "Applebee's",
                "official_name": "Applebee's Neighborhood Grill & Bar",
                "phone": "+1 732-957-9400",
                "website": "https://restaurants.applebees.com/en-us/nj/middletown/1183-rt.-35-97065",
                "website:menu": "https://www.applebees.com/en/menu?StoreNumber=97065&action=viewmenu"
            },
            "geometry": {
                "type": "Point",
                "coordinates": [
                    -74.1116201,
                    40.3990848
                ]
            },
            "id": "node/3784857243"
        },
        {
            "type": "Feature",
            "properties": {
                "@id": "node/3784857246",
                "amenity": "restaurant",
                "cuisine": "pizza",
                "name": "Ristorante Pizzeria"
            },
            "geometry": {
                "type": "Point",
                "coordinates": [
                    -74.1129014,
                    40.3994228
                ]
            },
            "id": "node/3784857246"
        },
        {
            "type": "Feature",
            "properties": {
                "@id": "node/3784913382",
                "amenity": "restaurant",
                "name": "MJ's Pizza, Bar, & Grill"
            },
            "geometry": {
                "type": "Point",
                "coordinates": [
                    -74.106853,
                    40.3965627
                ]
            },
            "id": "node/3784913382"
        },
        {
            "type": "Feature",
            "properties": {
                "@id": "node/3784950600",
                "amenity": "restaurant",
                "check_date": "2025-02-14",
                "name": "Birravino"
            },
            "geometry": {
                "type": "Point",
                "coordinates": [
                    -74.0748608,
                    40.3533477
                ]
            },
            "id": "node/3784950600"
        },
        {
            "type": "Feature",
            "properties": {
                "@id": "node/3785271517",
                "addr:housenumber": "1396",
                "addr:postcode": "07730",
                "addr:street": "Route 36 North",
                "amenity": "restaurant",
                "brand": "Perkins",
                "brand:wikidata": "Q7169056",
                "cuisine": "american",
                "internet_access": "wlan",
                "name": "Perkins",
                "official_name": "Perkins Restaurant and Bakery",
                "opening_hours": "Su 08:00-14:30; Mo-Sa 08:00-19:30",
                "phone": "7327394600",
                "website": "https://www.perkinsrestaurants.com/locations/us/nj/hazlet/1396-hwy-36/",
                "wheelchair": "yes"
            },
            "geometry": {
                "type": "Point",
                "coordinates": [
                    -74.1885055,
                    40.4285143
                ]
            },
            "id": "node/3785271517"
        },
        {
            "type": "Feature",
            "properties": {
                "@id": "node/4224285690",
                "addr:housenumber": "141",
                "addr:postcode": "07701",
                "addr:street": "Shrewsbury Avenue",
                "amenity": "restaurant",
                "cuisine": "american",
                "name": "B2 Bistro & Bar"
            },
            "geometry": {
                "type": "Point",
                "coordinates": [
                    -74.0760898,
                    40.3460536
                ]
            },
            "id": "node/4224285690"
        },
        {
            "type": "Feature",
            "properties": {
                "@id": "node/4234079394",
                "addr:city": "Middletown",
                "addr:housenumber": "430",
                "addr:postcode": "07758",
                "addr:state": "NJ",
                "addr:street": "NJ-36",
                "amenity": "restaurant",
                "cuisine": "pizza",
                "delivery": "yes",
                "name": "Pizza & Pasta Factory",
                "opening_hours": "Mo-Sa 10:30-23:00; Su 11:00-22:30",
                "smoking": "outside",
                "takeaway": "yes"
            },
            "geometry": {
                "type": "Point",
                "coordinates": [
                    -74.1016986,
                    40.4240843
                ]
            },
            "id": "node/4234079394"
        },
        {
            "type": "Feature",
            "properties": {
                "@id": "node/4831227945",
                "addr:city": "Long Branch",
                "addr:housenumber": "8",
                "addr:postcode": "07740",
                "addr:street": "Ocean Avenue",
                "amenity": "restaurant",
                "cuisine": "japanese",
                "name": "Oni Ramen House",
                "opening_hours": "Mo-Su 11:30-21:00; Fr,Sa 11:30-22:00",
                "website": "https://www.oniramenhouse.com/"
            },
            "geometry": {
                "type": "Point",
                "coordinates": [
                    -73.9790272,
                    40.3023834
                ]
            },
            "id": "node/4831227945"
        },
        {
            "type": "Feature",
            "properties": {
                "@id": "node/4831305234",
                "addr:city": "Long Branch",
                "addr:housenumber": "186",
                "addr:postcode": "07740",
                "addr:street": "Broadway",
                "amenity": "restaurant",
                "cuisine": "mexican",
                "name": "La Valentina",
                "website": "https://lavalentinarestaurant.com/"
            },
            "geometry": {
                "type": "Point",
                "coordinates": [
                    -73.9863225,
                    40.3044542
                ]
            },
            "id": "node/4831305234"
        },
        {
            "type": "Feature",
            "properties": {
                "@id": "node/4978359823",
                "addr:city": "Hazlet Township",
                "addr:housenumber": "1721",
                "addr:postcode": "07730",
                "addr:state": "NJ",
                "addr:street": "Union Avenue",
                "amenity": "restaurant",
                "capacity": "25",
                "cuisine": "pizza",
                "delivery": "no",
                "level": "0",
                "name": "Romeo's Pizza & Italian Restaurant",
                "opening_hours": "Mo-Fr 10:30-22:30; Sa 11:00-23:00; Su 11:00-22:30; PH off",
                "outdoor_seating": "no",
                "phone": "+1-732-264-8182",
                "smoking": "outside",
                "takeaway": "yes"
            },
            "geometry": {
                "type": "Point",
                "coordinates": [
                    -74.1602431,
                    40.424767
                ]
            },
            "id": "node/4978359823"
        },
        {
            "type": "Feature",
            "properties": {
                "@id": "node/5020585221",
                "addr:housenumber": "745",
                "addr:postcode": "07730",
                "addr:street": "Poole Avenue",
                "amenity": "restaurant",
                "cuisine": "sushi",
                "name": "Nakayama Sushi",
                "opening_hours": "Mo-Th 09:00-18:00; Fr 11:00-23:00; Sa-Su 12:00-22:00",
                "phone": "+1-732-264-8889",
                "website": "http://www.nakayamaus.com"
            },
            "geometry": {
                "type": "Point",
                "coordinates": [
                    -74.1815037,
                    40.4345602
                ]
            },
            "id": "node/5020585221"
        },
        {
            "type": "Feature",
            "properties": {
                "@id": "node/5625645806",
                "addr:city": "Sea Bright Borough",
                "addr:housenumber": "140",
                "addr:postcode": "07760",
                "addr:state": "NJ",
                "addr:street": "Ocean Avenue",
                "amenity": "restaurant",
                "check_date": "2024-05-20",
                "cuisine": "seafood",
                "name": "2nd Jetty",
                "opening_hours": "We-Sa 16:00-22:00+; Su 12:00-22:00+",
                "phone": "+1 732 224 8700",
                "source": "esri_USDOT_NewJersey",
                "website": "https://2ndjetty.com/"
            },
            "geometry": {
                "type": "Point",
                "coordinates": [
                    -73.9765649,
                    40.3942629
                ]
            },
            "id": "node/5625645806"
        },
        {
            "type": "Feature",
            "properties": {
                "@id": "node/6019918417",
                "addr:housenumber": "88",
                "addr:street": "Bay Avenue",
                "amenity": "restaurant",
                "cuisine": "seafood",
                "name": "The Lusty Lobster"
            },
            "geometry": {
                "type": "Point",
                "coordinates": [
                    -73.9841131,
                    40.3999545
                ]
            },
            "id": "node/6019918417"
        },
        {
            "type": "Feature",
            "properties": {
                "@id": "node/6019919230",
                "amenity": "restaurant",
                "cuisine": "mexican",
                "name": "Chilangos"
            },
            "geometry": {
                "type": "Point",
                "coordinates": [
                    -73.9911532,
                    40.403933
                ]
            },
            "id": "node/6019919230"
        },
        {
            "type": "Feature",
            "properties": {
                "@id": "node/6022141101",
                "amenity": "restaurant",
                "name": "Etal"
            },
            "geometry": {
                "type": "Point",
                "coordinates": [
                    -73.9939247,
                    40.4045272
                ]
            },
            "id": "node/6022141101"
        },
        {
            "type": "Feature",
            "properties": {
                "@id": "node/6061539704",
                "addr:city": "Little Silver",
                "addr:housenumber": "290",
                "addr:street": "Willow Drive",
                "amenity": "restaurant",
                "cuisine": "coffee_shop;sandwich;american",
                "name": "Willow Deli",
                "outdoor_seating": "no",
                "takeaway": "yes"
            },
            "geometry": {
                "type": "Point",
                "coordinates": [
                    -74.0400063,
                    40.3286181
                ]
            },
            "id": "node/6061539704"
        },
        {
            "type": "Feature",
            "properties": {
                "@id": "node/6088915424",
                "addr:city": "Long Branch",
                "addr:housenumber": "207",
                "addr:postcode": "07740",
                "addr:state": "NJ",
                "addr:street": "3rd Avenue",
                "amenity": "restaurant",
                "cuisine": "chinese",
                "name": "Joy House",
                "phone": "+1 (732) 222-18808"
            },
            "geometry": {
                "type": "Point",
                "coordinates": [
                    -73.9873942,
                    40.2963655
                ]
            },
            "id": "node/6088915424"
        },
        {
            "type": "Feature",
            "properties": {
                "@id": "node/6088915425",
                "amenity": "restaurant",
                "cuisine": "mexican",
                "name": "El Rancho",
                "phone": "+1 (732) 222-3318"
            },
            "geometry": {
                "type": "Point",
                "coordinates": [
                    -73.9874006,
                    40.2964197
                ]
            },
            "id": "node/6088915425"
        },
        {
            "type": "Feature",
            "properties": {
                "@id": "node/6088915428",
                "amenity": "restaurant",
                "cuisine": "pizza;sandwich;wrap",
                "name": "John's Pizza & Grill",
                "phone": "+1 (732) 222-2525"
            },
            "geometry": {
                "type": "Point",
                "coordinates": [
                    -73.9874114,
                    40.2966527
                ]
            },
            "id": "node/6088915428"
        },
        {
            "type": "Feature",
            "properties": {
                "@id": "node/6632484585",
                "addr:housenumber": "794",
                "addr:postcode": "07748",
                "addr:street": "Highway 35",
                "amenity": "restaurant",
                "cuisine": "italian",
                "internet_access": "wlan",
                "name": "Villa Restaurant",
                "opening_hours": "Mo-Su 11:00-22:00",
                "operator": "Tony Davi",
                "phone": "+1-732-615-0770",
                "website": "http://www.villarestaurantandpizza.com"
            },
            "geometry": {
                "type": "Point",
                "coordinates": [
                    -74.0987027,
                    40.3881452
                ]
            },
            "id": "node/6632484585"
        },
        {
            "type": "Feature",
            "properties": {
                "@id": "node/6655946388",
                "addr:city": "Long Branch",
                "addr:housenumber": "228",
                "addr:postcode": "07740",
                "addr:state": "NJ",
                "addr:street": "Morris Avenue",
                "amenity": "restaurant",
                "name": "Rockafellers Station",
                "phone": "(732) 962-6666"
            },
            "geometry": {
                "type": "Point",
                "coordinates": [
                    -73.9889055,
                    40.2972339
                ]
            },
            "id": "node/6655946388"
        },
        {
            "type": "Feature",
            "properties": {
                "@id": "node/6670663430",
                "amenity": "restaurant",
                "cuisine": "pizza;italian",
                "name": "La Scarpetta"
            },
            "geometry": {
                "type": "Point",
                "coordinates": [
                    -74.0181241,
                    40.2871307
                ]
            },
            "id": "node/6670663430"
        },
        {
            "type": "Feature",
            "properties": {
                "@id": "node/6672795915",
                "amenity": "restaurant",
                "cuisine": "breakfast",
                "name": "Hungry Hobo"
            },
            "geometry": {
                "type": "Point",
                "coordinates": [
                    -74.0180905,
                    40.2865353
                ]
            },
            "id": "node/6672795915"
        },
        {
            "type": "Feature",
            "properties": {
                "@id": "node/7454962994",
                "addr:city": "Holmdel Township",
                "addr:housenumber": "2145",
                "addr:postcode": "07733",
                "addr:state": "NJ",
                "addr:street": "State Route 35",
                "amenity": "restaurant",
                "cuisine": "pizza;italian",
                "name": "Villa Pizza & Restaurant",
                "opening_hours": "Mo-Fr 11:00-10:00; Sa 11:00-11:00; Su 11:00-08:00",
                "phone": "(732) 888-1666"
            },
            "geometry": {
                "type": "Point",
                "coordinates": [
                    -74.1598313,
                    40.4168365
                ]
            },
            "id": "node/7454962994"
        },
        {
            "type": "Feature",
            "properties": {
                "@id": "node/7776599005",
                "amenity": "restaurant",
                "cuisine": "chicken",
                "name": "La Rosa Chicken & Grill",
                "opening_hours": "Mo-Su 11:00-21:00",
                "phone": "732 743 7880",
                "website": "https://www.larosagrill.com"
            },
            "geometry": {
                "type": "Point",
                "coordinates": [
                    -74.1602816,
                    40.4250629
                ]
            },
            "id": "node/7776599005"
        },
        {
            "type": "Feature",
            "properties": {
                "@id": "node/7881451284",
                "amenity": "restaurant",
                "cuisine": "breakfast;diner;sandwich",
                "name": "Amy's Omlette House",
                "website": "https://youramys.com/"
            },
            "geometry": {
                "type": "Point",
                "coordinates": [
                    -73.9807688,
                    40.3172381
                ]
            },
            "id": "node/7881451284"
        },
        {
            "type": "Feature",
            "properties": {
                "@id": "node/7881485885",
                "amenity": "restaurant",
                "cuisine": "pizza;italian",
                "name": "Attilio's",
                "website": "https://attiliosursulaplaza.com/"
            },
            "geometry": {
                "type": "Point",
                "coordinates": [
                    -73.9802122,
                    40.3166943
                ]
            },
            "id": "node/7881485885"
        },
        {
            "type": "Feature",
            "properties": {
                "@id": "node/8112497676",
                "addr:city": "Sea Bright",
                "addr:housenumber": "1030",
                "addr:postcode": "07760",
                "addr:state": "NJ",
                "addr:street": "Ocean Avenue",
                "amenity": "restaurant",
                "bar": "yes",
                "cuisine": "pizza",
                "name": "Tommy's Tavern + Tap",
                "opening_hours": "Su-Th 11:00-23:00; Fr-Sa 11:00-24:00",
                "opening_hours:kitchen": "Su 11:00-21:00; Mo-Th 11:00-22:00; Fr-Sa 11:00-23:00",
                "phone": "+1 732 842 5044",
                "website": "https://www.tommystavernandtap.com"
            },
            "geometry": {
                "type": "Point",
                "coordinates": [
                    -73.9744245,
                    40.3641483
                ]
            },
            "id": "node/8112497676"
        },
        {
            "type": "Feature",
            "properties": {
                "@id": "node/8112497677",
                "addr:city": "Sea Bright",
                "addr:housenumber": "1062",
                "addr:postcode": "07760",
                "addr:state": "NJ",
                "addr:street": "Ocean Avenue",
                "amenity": "restaurant",
                "cuisine": "ice_cream",
                "name": "Gracie and the Dudes Homemade Ice Cream",
                "phone": "+1-732-741-3333"
            },
            "geometry": {
                "type": "Point",
                "coordinates": [
                    -73.9742773,
                    40.3630556
                ]
            },
            "id": "node/8112497677"
        },
        {
            "type": "Feature",
            "properties": {
                "@id": "node/8112497678",
                "addr:city": "Sea Bright",
                "addr:housenumber": "1068",
                "addr:postcode": "07760",
                "addr:state": "NJ",
                "addr:street": "Ocean Avenue",
                "amenity": "restaurant",
                "cuisine": "pizza",
                "name": "Sea Bright Pizzeria & Restaurant",
                "phone": "+1-732-219-8770"
            },
            "geometry": {
                "type": "Point",
                "coordinates": [
                    -73.9742601,
                    40.3629086
                ]
            },
            "id": "node/8112497678"
        },
        {
            "type": "Feature",
            "properties": {
                "@id": "node/8112497679",
                "addr:city": "Sea Bright",
                "addr:housenumber": "1070",
                "addr:postcode": "07760",
                "addr:state": "NJ",
                "addr:street": "Ocean Avenue",
                "amenity": "restaurant",
                "cuisine": "italian",
                "name": "Anjelica's",
                "phone": "+1 732 842 2800",
                "website": "https://anjelicas.com/"
            },
            "geometry": {
                "type": "Point",
                "coordinates": [
                    -73.9742561,
                    40.3628164
                ]
            },
            "id": "node/8112497679"
        },
        {
            "type": "Feature",
            "properties": {
                "@id": "node/8112497681",
                "addr:city": "Sea Bright",
                "addr:housenumber": "1108",
                "addr:postcode": "07760",
                "addr:state": "NJ",
                "addr:street": "Ocean Avenue",
                "amenity": "restaurant",
                "check_date": "2024-05-20",
                "check_date:opening_hours": "2024-05-20",
                "cuisine": "breakfast",
                "internet_access": "wlan",
                "name": "Alice's Kitchen",
                "opening_hours": "Mo-Fr 06:30-15:00; Sa 06:00-14:30; Su 06:00-13:30",
                "phone": "+1 732 747 5999",
                "website": "https://www.aliceskitchen.net/"
            },
            "geometry": {
                "type": "Point",
                "coordinates": [
                    -73.9742651,
                    40.3613848
                ]
            },
            "id": "node/8112497681"
        },
        {
            "type": "Feature",
            "properties": {
                "@id": "node/8112497682",
                "addr:city": "Sea Bright",
                "addr:housenumber": "1120",
                "addr:postcode": "07760",
                "addr:state": "NJ",
                "addr:street": "Ocean Avenue",
                "amenity": "restaurant",
                "cuisine": "asian",
                "name": "Yumi",
                "phone": "+1-732-212-0881",
                "website": "https://www.yumirestaurant.com/"
            },
            "geometry": {
                "type": "Point",
                "coordinates": [
                    -73.9742688,
                    40.3611461
                ]
            },
            "id": "node/8112497682"
        },
        {
            "type": "Feature",
            "properties": {
                "@id": "node/8112497683",
                "addr:city": "Sea Bright",
                "addr:housenumber": "1124",
                "addr:postcode": "07760",
                "addr:state": "NJ",
                "addr:street": "Ocean Avenue",
                "amenity": "restaurant",
                "cuisine": "pub",
                "name": "Rory's Pub",
                "phone": "+1-732-383-7685",
                "website": "https://rorys-pub.business.site/"
            },
            "geometry": {
                "type": "Point",
                "coordinates": [
                    -73.9743957,
                    40.3609277
                ]
            },
            "id": "node/8112497683"
        },
        {
            "type": "Feature",
            "properties": {
                "@id": "node/8112497684",
                "addr:city": "Sea Bright",
                "addr:housenumber": "1",
                "addr:postcode": "07760",
                "addr:state": "NJ",
                "addr:street": "East Church Street",
                "amenity": "restaurant",
                "name": "Woody's Ocrean Grille",
                "phone": "7329361300",
                "website": "https://www.woodysoceangrille.com/"
            },
            "geometry": {
                "type": "Point",
                "coordinates": [
                    -73.9736602,
                    40.3616337
                ]
            },
            "id": "node/8112497684"
        },
        {
            "type": "Feature",
            "properties": {
                "@id": "node/8112497685",
                "addr:city": "Sea Bright",
                "addr:housenumber": "1132",
                "addr:postcode": "07760",
                "addr:state": "NJ",
                "addr:street": "East Ocean Avenue",
                "amenity": "restaurant",
                "cuisine": "breakfast",
                "name": "Yolk's on you Kitchen",
                "opening_hours": "07:00-16:00; Fr,Sa 07:00-20:00",
                "phone": "7327479655",
                "website": "https://www.yolksonyoukitchen.com/"
            },
            "geometry": {
                "type": "Point",
                "coordinates": [
                    -73.9742758,
                    40.3606986
                ]
            },
            "id": "node/8112497685"
        },
        {
            "type": "Feature",
            "properties": {
                "@id": "node/8112497686",
                "addr:city": "Sea Bright",
                "addr:housenumber": "1171",
                "addr:postcode": "07760",
                "addr:state": "NJ",
                "addr:street": "Ocean Avenue",
                "amenity": "restaurant",
                "cuisine": "bar",
                "name": "Donovan's Reef",
                "payment:cash": "yes",
                "payment:credit_cards": "no",
                "payment:debit_cards": "no",
                "phone": "+1 732 5301 833",
                "website": "https://www.donovansreefbeachbar.com/"
            },
            "geometry": {
                "type": "Point",
                "coordinates": [
                    -73.9727002,
                    40.3595041
                ]
            },
            "id": "node/8112497686"
        },
        {
            "type": "Feature",
            "properties": {
                "@id": "node/8587253769",
                "amenity": "restaurant",
                "name": "All Seasons"
            },
            "geometry": {
                "type": "Point",
                "coordinates": [
                    -74.0551983,
                    40.2914507
                ]
            },
            "id": "node/8587253769"
        },
        {
            "type": "Feature",
            "properties": {
                "@id": "node/8895546421",
                "addr:city": "Eatontown",
                "addr:housenumber": "180",
                "addr:postcode": "07724",
                "addr:state": "NJ",
                "addr:street": "NJ 35",
                "addr:unit": "2004A",
                "amenity": "restaurant",
                "brand": "Buffalo Wild Wings",
                "brand:wikidata": "Q509255",
                "cuisine": "wings",
                "name": "Buffalo Wild Wings",
                "opening_hours": "Su-Th 11:00-24:00; Fr-Sa 11:00-01:00",
                "phone": "+1-732-542-9464",
                "short_name": "BW3",
                "website": "https://www.buffalowildwings.com/locations/us/nj/eatontown/180-route-35-south/sports-bar-1358/"
            },
            "geometry": {
                "type": "Point",
                "coordinates": [
                    -74.0525973,
                    40.2877927
                ]
            },
            "id": "node/8895546421"
        },
        {
            "type": "Feature",
            "properties": {
                "@id": "node/8910700637",
                "addr:city": "Red Bank",
                "addr:housenumber": "19",
                "addr:postcode": "07701",
                "addr:state": "NJ",
                "addr:street": "Broad Street",
                "amenity": "restaurant",
                "bar": "yes",
                "cuisine": "italian",
                "name": "Catezza Italian Kitchen & Bar",
                "opening_hours": "Mo-Th 16:00-22:00; Fr-Sa 16:00-23:00; Su 16:00-21:00",
                "phone": "+1-732-633-0003",
                "website": "https://catezzarestaurant.com/"
            },
            "geometry": {
                "type": "Point",
                "coordinates": [
                    -74.06529,
                    40.3515669
                ]
            },
            "id": "node/8910700637"
        },
        {
            "type": "Feature",
            "properties": {
                "@id": "node/8910700639",
                "addr:city": "Red Bank",
                "addr:housenumber": "26",
                "addr:postcode": "07701",
                "addr:state": "NJ",
                "addr:street": "Broad Street",
                "amenity": "restaurant",
                "check_date": "2025-03-11",
                "contact:facebook": "https://www.facebook.com/therobinsonalehouse/",
                "cuisine": "american",
                "email": "redbank@mcloones.com",
                "name": "The Robinson Ale House",
                "opening_hours": "Mo-We,Su 10:30-22:00; Th-Sa 10:30-23:00",
                "outdoor_seating": "yes",
                "phone": "+1 732-383-8219",
                "reservation": "yes",
                "start_date": "2014",
                "takeaway": "yes",
                "website": "https://therobinsonalehouseredbank.com"
            },
            "geometry": {
                "type": "Point",
                "coordinates": [
                    -74.0656106,
                    40.3512593
                ]
            },
            "id": "node/8910700639"
        },
        {
            "type": "Feature",
            "properties": {
                "@id": "node/8955412418",
                "amenity": "restaurant",
                "cuisine": "pizza",
                "name": "Anthony's Pizza",
                "phone": "787-2950",
                "survey:date": "2021-07-27"
            },
            "geometry": {
                "type": "Point",
                "coordinates": [
                    -74.1330722,
                    40.441711
                ]
            },
            "id": "node/8955412418"
        },
        {
            "type": "Feature",
            "properties": {
                "@id": "node/8957618496",
                "addr:city": "Hazlet Township",
                "addr:housenumber": "3040",
                "addr:postcode": "07730",
                "addr:state": "NJ",
                "addr:street": "NJ 35",
                "amenity": "restaurant",
                "cuisine": "chinese",
                "name": "Xing Wok",
                "takeaway": "yes"
            },
            "geometry": {
                "type": "Point",
                "coordinates": [
                    -74.1815629,
                    40.4180434
                ]
            },
            "id": "node/8957618496"
        },
        {
            "type": "Feature",
            "properties": {
                "@id": "node/8957618498",
                "addr:city": "Hazlet Township",
                "addr:housenumber": "3046",
                "addr:postcode": "07730",
                "addr:state": "NJ",
                "addr:street": "NJ 35",
                "amenity": "restaurant",
                "cuisine": "thai",
                "name": "Ae's Thai & BBQ"
            },
            "geometry": {
                "type": "Point",
                "coordinates": [
                    -74.1814893,
                    40.4181801
                ]
            },
            "id": "node/8957618498"
        },
        {
            "type": "Feature",
            "properties": {
                "@id": "node/8961358930",
                "addr:city": "Hazlet Township",
                "addr:housenumber": "3070",
                "addr:postcode": "07730",
                "addr:state": "NJ",
                "addr:street": "NJ 35",
                "amenity": "restaurant",
                "cuisine": "korean;barbecue"
            },
            "geometry": {
                "type": "Point",
                "coordinates": [
                    -74.1812795,
                    40.4185702
                ]
            },
            "id": "node/8961358930"
        },
        {
            "type": "Feature",
            "properties": {
                "@id": "node/9006727318",
                "addr:housenumber": "340",
                "addr:postcode": "07722",
                "addr:street": "Route 34 South",
                "amenity": "restaurant",
                "cuisine": "american",
                "internet_access": "wlan",
                "name": "Perkins",
                "phone": "7325771011"
            },
            "geometry": {
                "type": "Point",
                "coordinates": [
                    -74.1744627,
                    40.2860695
                ]
            },
            "id": "node/9006727318"
        },
        {
            "type": "Feature",
            "properties": {
                "@id": "node/9063322267",
                "addr:city": "Red Bank",
                "addr:housenumber": "90",
                "addr:postcode": "07701",
                "addr:state": "NJ",
                "addr:street": "Broad Street",
                "amenity": "restaurant",
                "cuisine": "indian",
                "email": "bombayriver@gmail.com",
                "name": "Bombay River",
                "opening_hours": "Tu-Su 12:00-15:00,16:00-21:30; Mo off",
                "phone": "+1 732 530 1598",
                "website": "https://www.bombayriver.com/"
            },
            "geometry": {
                "type": "Point",
                "coordinates": [
                    -74.0654392,
                    40.34911
                ]
            },
            "id": "node/9063322267"
        },
        {
            "type": "Feature",
            "properties": {
                "@id": "node/9063322268",
                "addr:city": "Red Bank",
                "addr:housenumber": "28",
                "addr:postcode": "07701",
                "addr:state": "NJ",
                "addr:street": "Broad Street",
                "amenity": "restaurant",
                "check_date": "2025-03-11",
                "cuisine": "italian",
                "name": "Patrizia's Ristorante Italiano",
                "opening_hours": "We-Th 11:00-21:00; Fr-Sa 11:00-23:00; Su 12:00-21:00",
                "phone": "+1-732-741-5555",
                "reservation": "yes",
                "website": "https://www.patrizias.com/red-bank-specials"
            },
            "geometry": {
                "type": "Point",
                "coordinates": [
                    -74.0656049,
                    40.3511724
                ]
            },
            "id": "node/9063322268"
        },
        {
            "type": "Feature",
            "properties": {
                "@id": "node/9069300611",
                "addr:city": "West Long Branch",
                "addr:housenumber": "145",
                "addr:postcode": "07764",
                "addr:state": "NJ",
                "addr:street": "Monmouth Road",
                "addr:unit": "7",
                "amenity": "restaurant",
                "cuisine": "pizza",
                "name": "Attilio Ristorante & Pizzeria",
                "opening_hours": "Tu-Th 10:30-22:30; Fr,Sa 10:30-23:00; Su 11:00-22:30",
                "phone": "+1-732-542-7377",
                "website": "http://www.attiliospizzawestlongbranch.com/"
            },
            "geometry": {
                "type": "Point",
                "coordinates": [
                    -74.0320224,
                    40.2956182
                ]
            },
            "id": "node/9069300611"
        },
        {
            "type": "Feature",
            "properties": {
                "@id": "node/9069316922",
                "addr:city": "West Long Branch",
                "addr:housenumber": "145",
                "addr:postcode": "07764",
                "addr:state": "NJ",
                "addr:street": "Monmouth Road",
                "addr:unit": "9",
                "amenity": "restaurant",
                "cuisine": "asian",
                "name": "Misu 36 Asian Cuisine",
                "opening_hours": "Mo-Th 11:30-15:00,16:30-22:00; Fr 11:30-15:00,16:30-22:30; Sa 12:00-22:30; Su 12:30-22:00",
                "phone": "+1-732-963-9898",
                "website": "https://www.mizu36.com/"
            },
            "geometry": {
                "type": "Point",
                "coordinates": [
                    -74.0318122,
                    40.2954432
                ]
            },
            "id": "node/9069316922"
        },
        {
            "type": "Feature",
            "properties": {
                "@id": "node/9069316924",
                "addr:city": "West Long Branch",
                "addr:housenumber": "145",
                "addr:postcode": "07764",
                "addr:state": "NJ",
                "addr:street": "Monmouth Road",
                "amenity": "restaurant",
                "cuisine": "mexican",
                "name": "Bubbakoo's Burritos",
                "opening_hours": "Mo-Su 11:00-21:00",
                "phone": "+1-732-542-8226",
                "website": "https://www.bubbakoos.com/location/wlongbranchnj"
            },
            "geometry": {
                "type": "Point",
                "coordinates": [
                    -74.0320565,
                    40.2952226
                ]
            },
            "id": "node/9069316924"
        },
        {
            "type": "Feature",
            "properties": {
                "@id": "node/9649305044",
                "addr:city": "Long Branch",
                "addr:housenumber": "15",
                "addr:postcode": "08701",
                "addr:state": "NJ",
                "addr:street": "Morris Avenue",
                "amenity": "restaurant",
                "cuisine": "steak_house",
                "email": "Jacob@cedarpeakmgmt.com",
                "name": "Salt Steakhouse",
                "phone": "7328137258",
                "website": "https://www.saltlb.com/"
            },
            "geometry": {
                "type": "Point",
                "coordinates": [
                    -73.9803506,
                    40.2991885
                ]
            },
            "id": "node/9649305044"
        },
        {
            "type": "Feature",
            "properties": {
                "@id": "node/9809545164",
                "addr:city": "Sea Bright",
                "addr:housenumber": "816",
                "addr:postcode": "07760",
                "addr:state": "NJ",
                "addr:street": "Ocean Avenue",
                "amenity": "restaurant",
                "cuisine": "american",
                "name": "The Rum Runner"
            },
            "geometry": {
                "type": "Point",
                "coordinates": [
                    -73.974775,
                    40.3712393
                ]
            },
            "id": "node/9809545164"
        },
        {
            "type": "Feature",
            "properties": {
                "@id": "node/9809545170",
                "addr:city": "Atlantic Highlands",
                "addr:housenumber": "1010",
                "addr:postcode": "07716",
                "addr:state": "NJ",
                "addr:street": "NJ-36",
                "amenity": "restaurant",
                "cuisine": "italian",
                "name": "Chiafullo's",
                "phone": "7322919040"
            },
            "geometry": {
                "type": "Point",
                "coordinates": [
                    -74.0269292,
                    40.402565
                ]
            },
            "id": "node/9809545170"
        },
        {
            "type": "Feature",
            "properties": {
                "@id": "node/9809545188",
                "addr:city": "Rumson",
                "addr:housenumber": "123",
                "addr:postcode": "07760",
                "addr:state": "NJ",
                "addr:street": "E River Road",
                "air_conditioning": "yes",
                "amenity": "restaurant",
                "bar": "yes",
                "cuisine": "american",
                "delivery": "yes",
                "name": "Val's Tavern",
                "outdoor_seating": "yes",
                "website": "https://valstavern.com/"
            },
            "geometry": {
                "type": "Point",
                "coordinates": [
                    -73.9992962,
                    40.3713256
                ]
            },
            "id": "node/9809545188"
        },
        {
            "type": "Feature",
            "properties": {
                "@id": "node/9809548448",
                "addr:city": "Rumson",
                "addr:housenumber": "1",
                "addr:postcode": "07760",
                "addr:state": "NJ",
                "addr:street": "1st Street",
                "amenity": "restaurant",
                "bar": "yes",
                "brewery": "yes",
                "cuisine": "american",
                "name": "Barnacle Bill's",
                "opening_hours": "Tu,Th 16:00-22:00; Fr,Sa 12:00-23:00; Su 12:00-21:00",
                "phone": "+1 732-747-8396",
                "website": "https://www.barnaclebillsrumson.com/"
            },
            "geometry": {
                "type": "Point",
                "coordinates": [
                    -74.0136992,
                    40.3757311
                ]
            },
            "id": "node/9809548448"
        },
        {
            "type": "Feature",
            "properties": {
                "@id": "node/9809548450",
                "addr:city": "Fair Haven",
                "addr:housenumber": "740",
                "addr:postcode": "07704",
                "addr:state": "NJ",
                "addr:street": "River Road",
                "addr:unit": "100",
                "amenity": "restaurant",
                "name": "Raven & the Peach"
            },
            "geometry": {
                "type": "Point",
                "coordinates": [
                    -74.0363135,
                    40.3639035
                ]
            },
            "id": "node/9809548450"
        },
        {
            "type": "Feature",
            "properties": {
                "@id": "node/9809548452",
                "addr:city": "Fair Haven",
                "addr:housenumber": "757",
                "addr:postcode": "07704",
                "addr:state": "NJ",
                "addr:street": "River Road",
                "amenity": "restaurant",
                "cuisine": "pizza",
                "name": "Lupo Pizzeria Fair Haven",
                "phone": "7327471400"
            },
            "geometry": {
                "type": "Point",
                "coordinates": [
                    -74.0355715,
                    40.3646715
                ]
            },
            "id": "node/9809548452"
        },
        {
            "type": "Feature",
            "properties": {
                "@id": "node/9809548457",
                "addr:city": "Fair Haven",
                "addr:housenumber": "588",
                "addr:postcode": "07704",
                "addr:state": "NJ",
                "addr:street": "River Road",
                "amenity": "restaurant",
                "name": "Over Easy Kitchen",
                "phone": "7323835374",
                "website": "https://www.overeasykitchen.com/"
            },
            "geometry": {
                "type": "Point",
                "coordinates": [
                    -74.0417636,
                    40.3609603
                ]
            },
            "id": "node/9809548457"
        },
        {
            "type": "Feature",
            "properties": {
                "@id": "node/9984642977",
                "addr:city": "Colts Neck",
                "addr:housenumber": "191",
                "addr:postcode": "07722",
                "addr:state": "NJ",
                "addr:street": "Route 537",
                "amenity": "restaurant",
                "fax": "+1-732-462-5992",
                "name": "Colts Neck Inn Steak & Chop House",
                "opening_hours": "Tu,Th 15:00-22:00, We 15:00-24:00, Fr,Sa 25:00-23:00, Su 15:00-20:00",
                "payment:american_express": "yes",
                "payment:cash": "yes",
                "payment:discover_card": "yes",
                "payment:mastercard": "yes",
                "payment:visa": "yes",
                "phone": "+1-732-462-0383",
                "website": "https://coltsneckinn.com"
            },
            "geometry": {
                "type": "Point",
                "coordinates": [
                    -74.1391157,
                    40.2988792
                ]
            },
            "id": "node/9984642977"
        },
        {
            "type": "Feature",
            "properties": {
                "@id": "node/10051565019",
                "amenity": "restaurant",
                "cuisine": "regional",
                "name": "Shore Casino Restaurant",
                "offshore": "yes"
            },
            "geometry": {
                "type": "Point",
                "coordinates": [
                    -74.0341381,
                    40.4165583
                ]
            },
            "id": "node/10051565019"
        },
        {
            "type": "Feature",
            "properties": {
                "@id": "node/10252755118",
                "addr:city": "Holmdel",
                "addr:housenumber": "101",
                "addr:postcode": "07733",
                "addr:state": "NJ",
                "addr:street": "Crawfords Corner Road",
                "amenity": "restaurant",
                "certification": "diet:kosher",
                "certification:certifier": "ou kosher",
                "certification:rating": "ou;ou-m",
                "cuisine": "kebab;mediterranean",
                "diet:kosher": "yes",
                "name": "Miznon Kosher at Bell Works",
                "opening_hours": "Mo 11:00-15:00; Tu-Th 11:00-20:00; Su 11:00-20:00",
                "phone": "+1-732-837-1471",
                "website": "https://www.miznonkosherbellworks.com/"
            },
            "geometry": {
                "type": "Point",
                "coordinates": [
                    -74.1681767,
                    40.3652399
                ]
            },
            "id": "node/10252755118"
        },
        {
            "type": "Feature",
            "properties": {
                "@id": "node/10252755120",
                "amenity": "restaurant",
                "cuisine": "mexican",
                "name": "Estrella Azul",
                "opening_hours": "Mo-Th 11:00-16:30; Fr 11:00-16:00; Sa-Su off",
                "phone": "+1-732-812-4004",
                "website": "https://www.estrellaazulbw.com/"
            },
            "geometry": {
                "type": "Point",
                "coordinates": [
                    -74.1674486,
                    40.3647537
                ]
            },
            "id": "node/10252755120"
        },
        {
            "type": "Feature",
            "properties": {
                "@id": "node/10252755121",
                "amenity": "restaurant",
                "cuisine": "italian",
                "name": "Mezza Luna",
                "opening_hours": "Mo-Fr 11:00-16:00; Sa-Su off",
                "phone": "+1-732-812-4006",
                "website": "https://mezzalunabw.com/"
            },
            "geometry": {
                "type": "Point",
                "coordinates": [
                    -74.1673861,
                    40.3647128
                ]
            },
            "id": "node/10252755121"
        },
        {
            "type": "Feature",
            "properties": {
                "@id": "node/10652785923",
                "amenity": "restaurant",
                "cuisine": "japanese",
                "name": "Toki"
            },
            "geometry": {
                "type": "Point",
                "coordinates": [
                    -74.0655022,
                    40.3495973
                ]
            },
            "id": "node/10652785923"
        },
        {
            "type": "Feature",
            "properties": {
                "@id": "node/10652785929",
                "addr:city": "Red Bank",
                "addr:housenumber": "17",
                "addr:postcode": "07701",
                "addr:state": "NJ",
                "addr:street": "West Front Street",
                "amenity": "restaurant",
                "check_date": "2025-03-11",
                "contact:facebook": "https://www.facebook.com/JRsRedBank/",
                "cuisine": "american",
                "name": "JR's",
                "opening_hours": "Mo-Th,Su 11:00-24:00, Fr-Sa 11:00-03:00",
                "phone": "+1 732-345-0100",
                "website": "https://jrsdelivers.com/"
            },
            "geometry": {
                "type": "Point",
                "coordinates": [
                    -74.065994,
                    40.3519779
                ]
            },
            "id": "node/10652785929"
        },
        {
            "type": "Feature",
            "properties": {
                "@id": "node/11087438205",
                "amenity": "restaurant",
                "name": "CJ's Spot Funnel Cake"
            },
            "geometry": {
                "type": "Point",
                "coordinates": [
                    -74.1347783,
                    40.4554389
                ]
            },
            "id": "node/11087438205"
        },
        {
            "type": "Feature",
            "properties": {
                "@id": "node/11197525062",
                "amenity": "restaurant",
                "cuisine": "japanese",
                "name": "Ichiban Sushi and Hibachi"
            },
            "geometry": {
                "type": "Point",
                "coordinates": [
                    -74.1425852,
                    40.4143976
                ]
            },
            "id": "node/11197525062"
        },
        {
            "type": "Feature",
            "properties": {
                "@id": "node/11410900190",
                "amenity": "restaurant",
                "cuisine": "indian",
                "name": "Neelam Indian Cuisine"
            },
            "geometry": {
                "type": "Point",
                "coordinates": [
                    -74.1114167,
                    40.396906
                ]
            },
            "id": "node/11410900190"
        },
        {
            "type": "Feature",
            "properties": {
                "@id": "node/11410900200",
                "amenity": "restaurant",
                "cuisine": "sushi",
                "name": "Sono Sushi"
            },
            "geometry": {
                "type": "Point",
                "coordinates": [
                    -74.1105766,
                    40.3968674
                ]
            },
            "id": "node/11410900200"
        },
        {
            "type": "Feature",
            "properties": {
                "@id": "node/11412063545",
                "amenity": "restaurant",
                "cuisine": "chinese",
                "name": "Tai Hing Chinese Food"
            },
            "geometry": {
                "type": "Point",
                "coordinates": [
                    -74.1220274,
                    40.4029551
                ]
            },
            "id": "node/11412063545"
        },
        {
            "type": "Feature",
            "properties": {
                "@id": "node/11412063547",
                "amenity": "restaurant",
                "cuisine": "indian",
                "name": "Haldi Chowk Authentic Indian Cuisine"
            },
            "geometry": {
                "type": "Point",
                "coordinates": [
                    -74.1219275,
                    40.4029518
                ]
            },
            "id": "node/11412063547"
        },
        {
            "type": "Feature",
            "properties": {
                "@id": "node/11412063555",
                "amenity": "restaurant",
                "cuisine": "breakfast;lunch",
                "name": "Meemom's Breakfast & Lunch"
            },
            "geometry": {
                "type": "Point",
                "coordinates": [
                    -74.121134,
                    40.4025553
                ]
            },
            "id": "node/11412063555"
        },
        {
            "type": "Feature",
            "properties": {
                "@id": "node/11412063559",
                "addr:city": "Middletown",
                "addr:housenumber": "1375",
                "addr:postcode": "07748",
                "addr:state": "NJ",
                "addr:street": "NJ 35",
                "amenity": "restaurant",
                "cuisine": "japanese",
                "name": "Takumi Japanese Cuisine",
                "opening_hours": "Mo-Th 11:00-22:00; Fr-Sa 11:00-23:00; Su 12:00-22:00",
                "phone": "732 533 5857;732 533 5874",
                "website": "https://www.takumisushinj.com/"
            },
            "geometry": {
                "type": "Point",
                "coordinates": [
                    -74.1209232,
                    40.4024154
                ]
            },
            "id": "node/11412063559"
        },
        {
            "type": "Feature",
            "properties": {
                "@id": "node/11681873069",
                "addr:city": "Red Bank",
                "addr:housenumber": "33",
                "addr:postcode": "07701",
                "addr:state": "NJ",
                "addr:street": "Broad Street",
                "amenity": "restaurant",
                "cuisine": "steak_house",
                "name": "Char Steakhouse",
                "opening_hours": "Tu-Th 16:00-22:00; Fr 16:00-23:00; Sa 13:00-23:00; Su 14:00-21:00",
                "phone": "+1-732-450-2427",
                "website": "https://charsteakhouse.com/"
            },
            "geometry": {
                "type": "Point",
                "coordinates": [
                    -74.0652668,
                    40.351163
                ]
            },
            "id": "node/11681873069"
        },
        {
            "type": "Feature",
            "properties": {
                "@id": "node/11774685050",
                "addr:city": "Holmdel",
                "addr:housenumber": "101",
                "addr:postcode": "07733",
                "addr:state": "NJ",
                "addr:street": "Crawfords Corner Road",
                "addr:unit": "3100",
                "amenity": "restaurant",
                "bar": "yes",
                "cuisine": "european;seafood;italian;spanish",
                "diet:gluten_free": "yes",
                "diet:vegan": "yes",
                "name": "Mabel at Bell Works",
                "opening_hours": "Mo-Tu off; We-Fr 11:00-16:00,17:00-22:00; Sa 10:00-16:00,17:00-22:00; Su 10:00-16:00",
                "reservation": "yes",
                "start_date": "2024-11-20",
                "website": "https://www.mabelatbell.com/"
            },
            "geometry": {
                "type": "Point",
                "coordinates": [
                    -74.1675621,
                    40.3648302
                ]
            },
            "id": "node/11774685050"
        },
        {
            "type": "Feature",
            "properties": {
                "@id": "node/11978461790",
                "addr:city": "Eatontown",
                "addr:housenumber": "2000",
                "addr:postcode": "07724",
                "addr:state": "NJ",
                "addr:street": "Lowther Drive",
                "amenity": "restaurant",
                "name": "Ember & Eagle",
                "website": "https://www.emberandeagle.com"
            },
            "geometry": {
                "type": "Point",
                "coordinates": [
                    -74.0727954,
                    40.3020094
                ]
            },
            "id": "node/11978461790"
        },
        {
            "type": "Feature",
            "properties": {
                "@id": "node/11999662261",
                "addr:city": "Keyport",
                "addr:housenumber": "98",
                "addr:postcode": "07735",
                "addr:state": "NJ",
                "addr:street": "Maple Place",
                "amenity": "restaurant",
                "cuisine": "indian",
                "name": "Aangara",
                "opening_hours": "Tu-Th 11:00-21:00; Fr-Su 11:00-22:00",
                "payment:cash": "yes",
                "payment:credit_cards": "yes",
                "payment:debit_cards": "yes",
                "phone": "(732) 320-1569",
                "reservation": "required",
                "website": "https://aangara.com/",
                "wheelchair": "yes"
            },
            "geometry": {
                "type": "Point",
                "coordinates": [
                    -74.1970934,
                    40.4338428
                ]
            },
            "id": "node/11999662261"
        },
        {
            "type": "Feature",
            "properties": {
                "@id": "node/12006501249",
                "addr:city": "Leonardo",
                "addr:housenumber": "41",
                "addr:postcode": "07737",
                "addr:state": "NJ",
                "addr:street": "Center Avenue",
                "amenity": "restaurant",
                "cuisine": "mexican",
                "delivery": "yes",
                "name": "El Ranchero",
                "opening_hours": "Mo-Su 10:00-22:00",
                "phone": "(732) 872-4891",
                "takeaway": "yes",
                "website": "https://leonardo.elrancheromexicanrestnj.com/"
            },
            "geometry": {
                "type": "Point",
                "coordinates": [
                    -74.0544536,
                    40.4185065
                ]
            },
            "id": "node/12006501249"
        },
        {
            "type": "Feature",
            "properties": {
                "@id": "node/12006519369",
                "addr:city": "Keyport",
                "addr:housenumber": "150",
                "addr:postcode": "07735",
                "addr:state": "NJ",
                "addr:street": "1st Street",
                "amenity": "restaurant",
                "cuisine": "mexican",
                "delivery": "yes",
                "name": "El Ranchero",
                "opening_hours": "Mo-Su 10:00-22:00",
                "phone": "(732) 888-6200",
                "takeaway": "yes",
                "website": "https://keport.elrancheromexicanrestnj.com/"
            },
            "geometry": {
                "type": "Point",
                "coordinates": [
                    -74.1966246,
                    40.4388272
                ]
            },
            "id": "node/12006519369"
        },
        {
            "type": "Feature",
            "properties": {
                "@id": "node/12215759596",
                "addr:city": "Red Bank",
                "addr:housenumber": "14",
                "addr:postcode": "07701",
                "addr:state": "NJ",
                "addr:street": "Broad Street",
                "amenity": "restaurant",
                "check_date": "2025-03-11",
                "contact:facebook": "https://www.facebook.com/bistroatredbank/",
                "cuisine": "american",
                "email": "bistrorb@gmail.com",
                "name": "The Bistro at Red Bank",
                "opening_hours": "Mo-Th 12:00-21:00; Fr-Sa 12:00-22:00; Su 12:00-20:00",
                "phone": "+1-732-530-5553",
                "website": "https://thebistroatredbank.com"
            },
            "geometry": {
                "type": "Point",
                "coordinates": [
                    -74.0656329,
                    40.3515966
                ]
            },
            "id": "node/12215759596"
        },
        {
            "type": "Feature",
            "properties": {
                "@id": "node/12363448039",
                "addr:city": "Port Monmouth",
                "addr:housenumber": "361",
                "addr:postcode": "07758",
                "addr:state": "NJ",
                "addr:street": "NJ 36",
                "amenity": "restaurant",
                "cuisine": "pizza",
                "name": "Cugini's Pizza",
                "opening_hours": "Mo-Th 11:00-21:15; Fr 11:00-21:30; Sa 11:00-21:45; Su 11:00-20:30",
                "phone": "+1-732-889-5644",
                "website": "https://www.cuginispizzamenu.com/"
            },
            "geometry": {
                "type": "Point",
                "coordinates": [
                    -74.107197,
                    40.4290454
                ]
            },
            "id": "node/12363448039"
        },
        {
            "type": "Feature",
            "properties": {
                "@id": "node/12441848137",
                "addr:city": "Oceanport",
                "addr:housenumber": "700",
                "addr:postcode": "07757",
                "addr:state": "NJ",
                "addr:street": "Oceanport Avenue",
                "amenity": "restaurant",
                "cuisine": "bagel;sandwich",
                "name": "Round Dough With a Hole",
                "opening_hours": "Mo-Su 06:00-14:00",
                "phone": "+1-732-380-7474",
                "website": "https://www.rounddoughwithahole.com/"
            },
            "geometry": {
                "type": "Point",
                "coordinates": [
                    -74.0352139,
                    40.3188771
                ]
            },
            "id": "node/12441848137"
        },
        {
            "type": "Feature",
            "properties": {
                "@id": "node/12586166118",
                "addr:city": "Hazlet Township",
                "addr:housenumber": "479",
                "addr:postcode": "07730",
                "addr:state": "NJ",
                "addr:street": "Middle Road",
                "amenity": "restaurant",
                "cuisine": "asian",
                "name": "UJ's Asian Bistro",
                "phone": "7327871800"
            },
            "geometry": {
                "type": "Point",
                "coordinates": [
                    -74.144284,
                    40.4224613
                ]
            },
            "id": "node/12586166118"
        },
        {
            "type": "Feature",
            "properties": {
                "@id": "node/12588208303",
                "addr:housenumber": "31",
                "addr:postcode": "07740",
                "addr:street": "Montgomery Avenue",
                "amenity": "restaurant",
                "cuisine": "japanese;sushi",
                "name": "Izu Sushi",
                "phone": "7328700807",
                "website": "https://izu-sushi.com/"
            },
            "geometry": {
                "type": "Point",
                "coordinates": [
                    -73.9847033,
                    40.2854996
                ]
            },
            "id": "node/12588208303"
        },
        {
            "type": "Feature",
            "properties": {
                "@id": "node/12589296226",
                "addr:city": "Belford",
                "addr:housenumber": "872",
                "addr:postcode": "07718",
                "addr:state": "NJ",
                "addr:street": "Main Street",
                "amenity": "restaurant",
                "cuisine": "pizza",
                "name": "Naples Pizzeria",
                "opening_hours": "Tu-Th 10:00-22:00; Fr-Sa 10:00-23:00; Su 11:00-21:00",
                "phone": "732 787 9479",
                "website": "https://naplespizzaandrestaurant.com/"
            },
            "geometry": {
                "type": "Point",
                "coordinates": [
                    -74.0944534,
                    40.4159847
                ]
            },
            "id": "node/12589296226"
        },
        {
            "type": "Feature",
            "properties": {
                "@id": "node/12637128873",
                "addr:city": "Red Bank",
                "addr:housenumber": "1",
                "addr:postcode": "07701",
                "addr:state": "NJ",
                "addr:street": "Broad Street",
                "amenity": "restaurant",
                "check_date": "2025-03-11",
                "cuisine": "pizza;sandwich;american",
                "name": "Sally Boy's",
                "opening_hours": "Mo-We,Su 11:00-21:00; Th 11:00-22:00, Fr-Sa 11:00-02:00",
                "phone": "+1-732-301-5222",
                "website": "https://www.sallyboys.com/",
                "website:menu": "https://order.toasttab.com/online/sally-boys-pizza-one-broad-street"
            },
            "geometry": {
                "type": "Point",
                "coordinates": [
                    -74.065322,
                    40.3521419
                ]
            },
            "id": "node/12637128873"
        },
        {
            "type": "Feature",
            "properties": {
                "@id": "node/12637128876",
                "addr:city": "Red Bank",
                "addr:housenumber": "9",
                "addr:postcode": "07701",
                "addr:state": "NJ",
                "addr:street": "Broad Street",
                "amenity": "restaurant",
                "cuisine": "sushi",
                "name": "Yumi Modern Sushi",
                "opening_hours": "Mo,We-Th 11:00-14:30,17:00-21:30; Tu off; Fr-Sa 11:00-14:30,17:00-22:30; Su 17:00-21:30; Dec 24-25 off; Jan 1 off",
                "phone": "+1-732-842-8868",
                "website": "https://www.yumirestaurant.com/"
            },
            "geometry": {
                "type": "Point",
                "coordinates": [
                    -74.0653078,
                    40.3518864
                ]
            },
            "id": "node/12637128876"
        },
        {
            "type": "Feature",
            "properties": {
                "@id": "node/12637128886",
                "addr:city": "Red Bank",
                "addr:housenumber": "39",
                "addr:postcode": "07701",
                "addr:state": "NJ",
                "addr:street": "Broad Street",
                "amenity": "restaurant",
                "cuisine": "thai",
                "name": "Baan Khun Thai Restaurant",
                "opening_hours": "Mo-off; Tu-Th 11:00-21:30; Fr-Sa 11:00-22:00; Su 11:00-21:00",
                "phone": "+1-732-366-9733",
                "website": "https://baankhunredbank.com/"
            },
            "geometry": {
                "type": "Point",
                "coordinates": [
                    -74.0652395,
                    40.3508342
                ]
            },
            "id": "node/12637128886"
        },
        {
            "type": "Feature",
            "properties": {
                "@id": "node/12637128890",
                "addr:city": "Red Bank",
                "addr:housenumber": "51",
                "addr:postcode": "07701",
                "addr:state": "NJ",
                "addr:street": "Broad Street",
                "amenity": "restaurant",
                "cuisine": "peruvian",
                "name": "Ceviche House Mi Peru",
                "opening_hours": "Mo,We-Th 12:00-21:00; Fr-Sa 12:00-22:00; Su 12:00-20:00",
                "phone": "+1-732-345-8083",
                "website": "https://sites.google.com/cevichehouseperu.com/cevichehouseperu/"
            },
            "geometry": {
                "type": "Point",
                "coordinates": [
                    -74.0652105,
                    40.3504859
                ]
            },
            "id": "node/12637128890"
        },
        {
            "type": "Feature",
            "properties": {
                "@id": "node/12637128893",
                "addr:city": "Red Bank",
                "addr:housenumber": "45",
                "addr:postcode": "07701",
                "addr:state": "NJ",
                "addr:street": "Broad Street",
                "amenity": "restaurant",
                "cuisine": "regional",
                "name": "Elli's Backyard",
                "opening_hours": "Mo off; Tu-Sa 08:00-16:00,17:00-22:00; Su 08:00-16:00",
                "phone": "+1-732-268-8902",
                "website": "https://www.ellisbackyard.com/"
            },
            "geometry": {
                "type": "Point",
                "coordinates": [
                    -74.0652238,
                    40.3506463
                ]
            },
            "id": "node/12637128893"
        },
        {
            "type": "Feature",
            "properties": {
                "@id": "node/12791788999",
                "addr:city": "Atlantic Highlands",
                "addr:housenumber": "5",
                "addr:postcode": "07716",
                "addr:state": "NJ",
                "addr:street": "bayshore Plaza",
                "amenity": "restaurant",
                "cuisine": "pizza;italian",
                "name": "Pomodoro Rosso Italian Grill & Pizzeria"
            },
            "geometry": {
                "type": "Point",
                "coordinates": [
                    -74.0407075,
                    40.4087947
                ]
            },
            "id": "node/12791788999"
        },
        {
            "type": "Feature",
            "properties": {
                "@id": "node/12827434711",
                "addr:city": "Red Bank",
                "addr:housenumber": "22",
                "addr:postcode": "07701",
                "addr:state": "NJ",
                "addr:street": "Broad Street",
                "amenity": "restaurant",
                "cuisine": "pizza",
                "name": "Via Sposito Pizza",
                "opening_hours": "Mo-Th 11:30-21:00; Fr-Sa 11:30-22:00; Su 12:00-20:00",
                "phone": "+1-732-860-2625",
                "website": "https://viasposito.com/"
            },
            "geometry": {
                "type": "Point",
                "coordinates": [
                    -74.0656204,
                    40.3514073
                ]
            },
            "id": "node/12827434711"
        },
        {
            "type": "Feature",
            "properties": {
                "@id": "node/13128861820",
                "addr:city": "Red Bank",
                "addr:housenumber": "75",
                "addr:postcode": "07701",
                "addr:state": "NJ",
                "addr:street": "Leighton Avenue",
                "amenity": "restaurant",
                "diet:gluten_free": "yes",
                "email": "team@kitchorganic.com",
                "name": "Kitch Organic",
                "opening_hours": "Mo-Th 09:00-15:30; Fr,Sa 09:00-16:00",
                "phone": "+7327415400",
                "website": "https://www.kitchorganic.com/"
            },
            "geometry": {
                "type": "Point",
                "coordinates": [
                    -74.078512,
                    40.3440113
                ]
            },
            "id": "node/13128861820"
        }
    ]
}